STARLINK-31671          
1 59516U 24073F   26068.10587874 -.00000535  00000+0 -98890-5 0  9997
2 59516  42.9998 321.5442 0003014 242.6241 117.4304 15.27573781106080
LIME                    
1 62648U 25009AR  26068.73906781  .00013254  00000+0  47723-3 0  9995
2 62648  97.3985 151.4831 0001635  35.9029 324.2320 15.28703313 63766
